[{"OBJECT_NAME":"INMARSAT 4-F2 (SOUTHPAN/PRN 122)","OBJECT_ID":"2005-044A","EPOCH":"2026-03-28T13:25:51.619872","MEAN_MOTION":1.00271063,"ECCENTRICITY":0.0002935,"INCLINATION":4.991,"RA_OF_ASC_NODE":43.7951,"ARG_OF_PERICENTER":337.4395,"MEAN_ANOMALY":149.6921,"EPHEMERIS_TYPE":0,"CLASSIFICATION_TYPE":"U","NORAD_CAT_ID":28899,"ELEMENT_SET_NO":999,"REV_AT_EPOCH":7471,"BSTAR":0,"MEAN_MOTION_DOT":-2.76e-6,"MEAN_MOTION_DDOT":0},{"OBJECT_NAME":"GSAT-8 (GAGAN/PRN 127)","OBJECT_ID":"2011-022A","EPOCH":"2026-03-28T13:20:06.151200","MEAN_MOTION":1.00273532,"ECCENTRICITY":0.00065711,"INCLINATION":1.9233,"RA_OF_ASC_NODE":82.796,"ARG_OF_PERICENTER":219.3316,"MEAN_ANOMALY":138.9324,"EPHEMERIS_TYPE":0,"CLASSIFICATION_TYPE":"U","NORAD_CAT_ID":37605,"ELEMENT_SET_NO":999,"REV_AT_EPOCH":5240,"BSTAR":0,"MEAN_MOTION_DOT":6.6e-7,"MEAN_MOTION_DDOT":0},{"OBJECT_NAME":"LUCH 5A (SDCM/PRN 140)","OBJECT_ID":"2011-074B","EPOCH":"2026-03-28T07:01:20.036064","MEAN_MOTION":1.00269714,"ECCENTRICITY":0.00032526,"INCLINATION":8.5497,"RA_OF_ASC_NODE":74.9826,"ARG_OF_PERICENTER":270.7103,"MEAN_ANOMALY":112.3109,"EPHEMERIS_TYPE":0,"CLASSIFICATION_TYPE":"U","NORAD_CAT_ID":37951,"ELEMENT_SET_NO":999,"REV_AT_EPOCH":5224,"BSTAR":0,"MEAN_MOTION_DOT":-6.3e-7,"MEAN_MOTION_DDOT":0},{"OBJECT_NAME":"SES-5 (EGNOS/PRN 136)","OBJECT_ID":"2012-036A","EPOCH":"2026-03-28T08:41:38.903712","MEAN_MOTION":1.00267091,"ECCENTRICITY":0.00020518,"INCLINATION":0.0634,"RA_OF_ASC_NODE":304.1475,"ARG_OF_PERICENTER":49.3865,"MEAN_ANOMALY":327.6149,"EPHEMERIS_TYPE":0,"CLASSIFICATION_TYPE":"U","NORAD_CAT_ID":38652,"ELEMENT_SET_NO":999,"REV_AT_EPOCH":4364,"BSTAR":0,"MEAN_MOTION_DOT":1.3e-7,"MEAN_MOTION_DDOT":0},{"OBJECT_NAME":"GSAT-10 (GAGAN/PRN 128)","OBJECT_ID":"2012-051B","EPOCH":"2026-03-28T15:17:17.649312","MEAN_MOTION":1.00270488,"ECCENTRICITY":0.00055462,"INCLINATION":0.0112,"RA_OF_ASC_NODE":194.2761,"ARG_OF_PERICENTER":246.0643,"MEAN_ANOMALY":58.0175,"EPHEMERIS_TYPE":0,"CLASSIFICATION_TYPE":"U","NORAD_CAT_ID":38779,"ELEMENT_SET_NO":999,"REV_AT_EPOCH":4929,"BSTAR":0,"MEAN_MOTION_DOT":-1.84e-6,"MEAN_MOTION_DDOT":0},{"OBJECT_NAME":"LUCH 5B (SDCM/PRN 125)","OBJECT_ID":"2012-061A","EPOCH":"2026-03-28T04:26:19.901184","MEAN_MOTION":1.00273331,"ECCENTRICITY":0.00032599,"INCLINATION":10.3102,"RA_OF_ASC_NODE":50.6673,"ARG_OF_PERICENTER":223.135,"MEAN_ANOMALY":322.0215,"EPHEMERIS_TYPE":0,"CLASSIFICATION_TYPE":"U","NORAD_CAT_ID":38977,"ELEMENT_SET_NO":999,"REV_AT_EPOCH":4879,"BSTAR":0,"MEAN_MOTION_DOT":-1.5e-6,"MEAN_MOTION_DDOT":0},{"OBJECT_NAME":"ASTRA 5B (EGNOS/PRN 123)","OBJECT_ID":"2014-011B","EPOCH":"2026-03-28T13:11:07.013472","MEAN_MOTION":1.00269015,"ECCENTRICITY":0.00036551,"INCLINATION":0.0883,"RA_OF_ASC_NODE":299.4413,"ARG_OF_PERICENTER":41.2408,"MEAN_ANOMALY":66.557,"EPHEMERIS_TYPE":0,"CLASSIFICATION_TYPE":"U","NORAD_CAT_ID":39617,"ELEMENT_SET_NO":999,"REV_AT_EPOCH":4385,"BSTAR":0,"MEAN_MOTION_DOT":1.17e-6,"MEAN_MOTION_DDOT":0},{"OBJECT_NAME":"LUCH 5V (SDCM/PRN 141)","OBJECT_ID":"2014-023A","EPOCH":"2026-03-28T11:48:45.437184","MEAN_MOTION":1.00272193,"ECCENTRICITY":0.00024574,"INCLINATION":4.9349,"RA_OF_ASC_NODE":70.5298,"ARG_OF_PERICENTER":302.4026,"MEAN_ANOMALY":84.9031,"EPHEMERIS_TYPE":0,"CLASSIFICATION_TYPE":"U","NORAD_CAT_ID":39727,"ELEMENT_SET_NO":999,"REV_AT_EPOCH":4355,"BSTAR":0,"MEAN_MOTION_DOT":-2.84e-6,"MEAN_MOTION_DDOT":0},{"OBJECT_NAME":"GSAT-15 (GAGAN/PRN 139)","OBJECT_ID":"2015-065A","EPOCH":"2026-03-28T13:16:51.612096","MEAN_MOTION":1.00271857,"ECCENTRICITY":0.00021168,"INCLINATION":0.0265,"RA_OF_ASC_NODE":257.8354,"ARG_OF_PERICENTER":137.4353,"MEAN_ANOMALY":83.4042,"EPHEMERIS_TYPE":0,"CLASSIFICATION_TYPE":"U","NORAD_CAT_ID":41028,"ELEMENT_SET_NO":999,"REV_AT_EPOCH":3799,"BSTAR":0,"MEAN_MOTION_DOT":-2.77e-6,"MEAN_MOTION_DDOT":0},{"OBJECT_NAME":"EUTELSAT 117 WEST B (WAAS/PRN 131)","OBJECT_ID":"2016-038B","EPOCH":"2026-03-28T11:59:38.679936","MEAN_MOTION":1.00271898,"ECCENTRICITY":1.82e-5,"INCLINATION":0.0184,"RA_OF_ASC_NODE":34.5664,"ARG_OF_PERICENTER":73.445,"MEAN_ANOMALY":140.8203,"EPHEMERIS_TYPE":0,"CLASSIFICATION_TYPE":"U","NORAD_CAT_ID":41589,"ELEMENT_SET_NO":999,"REV_AT_EPOCH":3585,"BSTAR":0,"MEAN_MOTION_DOT":-3.1e-7,"MEAN_MOTION_DDOT":0},{"OBJECT_NAME":"SES-15 (WAAS/PRN 133)","OBJECT_ID":"2017-026A","EPOCH":"2026-03-28T12:23:38.721696","MEAN_MOTION":1.00270166,"ECCENTRICITY":6.75e-5,"INCLINATION":0.0364,"RA_OF_ASC_NODE":334.5961,"ARG_OF_PERICENTER":14.3583,"MEAN_ANOMALY":253.7191,"EPHEMERIS_TYPE":0,"CLASSIFICATION_TYPE":"U","NORAD_CAT_ID":42709,"ELEMENT_SET_NO":999,"REV_AT_EPOCH":662,"BSTAR":0,"MEAN_MOTION_DOT":4.0e-7,"MEAN_MOTION_DDOT":0},{"OBJECT_NAME":"QZS-2 (QZSS/PRN 194)","OBJECT_ID":"2017-028A","EPOCH":"2026-03-28T06:51:35.968608","MEAN_MOTION":1.00255654,"ECCENTRICITY":0.0743022,"INCLINATION":39.5542,"RA_OF_ASC_NODE":244.3321,"ARG_OF_PERICENTER":270.5468,"MEAN_ANOMALY":274.0899,"EPHEMERIS_TYPE":0,"CLASSIFICATION_TYPE":"U","NORAD_CAT_ID":42738,"ELEMENT_SET_NO":999,"REV_AT_EPOCH":681,"BSTAR":0,"MEAN_MOTION_DOT":-2.14e-6,"MEAN_MOTION_DDOT":0},{"OBJECT_NAME":"QZS-3 (QZSS/PRN 199)","OBJECT_ID":"2017-048A","EPOCH":"2026-03-28T14:03:38.703168","MEAN_MOTION":1.0027441,"ECCENTRICITY":0.00020556,"INCLINATION":0.0536,"RA_OF_ASC_NODE":161.2428,"ARG_OF_PERICENTER":197.8723,"MEAN_ANOMALY":164.8013,"EPHEMERIS_TYPE":0,"CLASSIFICATION_TYPE":"U","NORAD_CAT_ID":42917,"ELEMENT_SET_NO":999,"REV_AT_EPOCH":3145,"BSTAR":0,"MEAN_MOTION_DOT":-3.67e-6,"MEAN_MOTION_DDOT":0},{"OBJECT_NAME":"QZS-4 (QZSS/PRN 195)","OBJECT_ID":"2017-062A","EPOCH":"2026-03-28T13:42:11.532384","MEAN_MOTION":1.00273721,"ECCENTRICITY":0.07480359,"INCLINATION":40.1569,"RA_OF_ASC_NODE":344.5133,"ARG_OF_PERICENTER":270.3627,"MEAN_ANOMALY":277.2698,"EPHEMERIS_TYPE":0,"CLASSIFICATION_TYPE":"U","NORAD_CAT_ID":42965,"ELEMENT_SET_NO":999,"REV_AT_EPOCH":3099,"BSTAR":0,"MEAN_MOTION_DOT":-3.34e-6,"MEAN_MOTION_DDOT":0},{"OBJECT_NAME":"BEIDOU-3 G1 (PRN 130)","OBJECT_ID":"2018-085A","EPOCH":"2026-03-28T13:44:18.828096","MEAN_MOTION":1.00269473,"ECCENTRICITY":0.00015426,"INCLINATION":2.8708,"RA_OF_ASC_NODE":99.6208,"ARG_OF_PERICENTER":23.5148,"MEAN_ANOMALY":48.9036,"EPHEMERIS_TYPE":0,"CLASSIFICATION_TYPE":"U","NORAD_CAT_ID":43683,"ELEMENT_SET_NO":999,"REV_AT_EPOCH":2725,"BSTAR":0,"MEAN_MOTION_DOT":-2.96e-6,"MEAN_MOTION_DDOT":0},{"OBJECT_NAME":"EUTELSAT 5 WEST B (EGNOS/PRN 121)","OBJECT_ID":"2019-067A","EPOCH":"2026-03-28T07:54:59.890176","MEAN_MOTION":1.00271247,"ECCENTRICITY":0.00032544,"INCLINATION":0.0662,"RA_OF_ASC_NODE":354.0584,"ARG_OF_PERICENTER":16.3147,"MEAN_ANOMALY":289.1044,"EPHEMERIS_TYPE":0,"CLASSIFICATION_TYPE":"U","NORAD_CAT_ID":44624,"ELEMENT_SET_NO":999,"REV_AT_EPOCH":2362,"BSTAR":0,"MEAN_MOTION_DOT":-6.2e-7,"MEAN_MOTION_DDOT":0},{"OBJECT_NAME":"BEIDOU-3 G2 (PRN 144)","OBJECT_ID":"2020-017A","EPOCH":"2026-03-28T13:27:12.968064","MEAN_MOTION":1.00271961,"ECCENTRICITY":0.00025521,"INCLINATION":2.7028,"RA_OF_ASC_NODE":45.9972,"ARG_OF_PERICENTER":321.7062,"MEAN_ANOMALY":100.1045,"EPHEMERIS_TYPE":0,"CLASSIFICATION_TYPE":"U","NORAD_CAT_ID":45344,"ELEMENT_SET_NO":999,"REV_AT_EPOCH":2245,"BSTAR":0,"MEAN_MOTION_DOT":-1.58e-6,"MEAN_MOTION_DDOT":0}]
